ORBITAL FACTORY 2 (OF-2)
1 45113U 19071C   20277.20501574  .00003319  00000-0  11138-3 0  9997
2 45113  51.6429 202.8952 0013561  85.9675 274.2857 15.33749563 37660
M2 PATHFINDER           
1 45727U 20037E   20277.16970345 -.00000051  00000-0  44609-6 0  9996
2 45727  97.7043  94.7834 0011780 305.0850  54.9238 14.91229887 14074
